GSAT0101 (PRN E11)      
1 37846U 11060A   23287.18453108 -.00000086  00000+0  00000+0 0  9991
2 37846  57.1131   8.2214 0000370  25.8502 334.1968  1.70476031 74461
GSAT0102 (PRN E12)      
1 37847U 11060B   23288.27581747 -.00000082  00000+0  00000+0 0  9990
2 37847  57.1139   8.1918 0001973 302.6038  53.3779  1.70475454 74480
GSAT0103 (PRN E19)      
1 38857U 12055A   23287.81030833  .00000078  00000+0  00000+0 0  9995
2 38857  55.2986 128.3794 0002073 245.3465 114.7299  1.70473738 68369
GSAT0104 (PRN E20)      
1 38858U 12055B   23287.19312505  .00000077  00000+0  00000+0 0  9995
2 38858  55.2983 128.3978 0001174 142.2090 217.8995  1.70474004 68355
GSAT0201 (PRN E18)      
1 40128U 14050A   23287.22856957 -.00000051  00000+0  00000+0 0  9996
2 40128  49.8999 312.9702 1607486 141.8855 230.6708  1.85519467 60191
GSAT0202 (PRN E14)      
1 40129U 14050B   23288.02680162 -.00000048  00000+0  00000+0 0  9995
2 40129  49.9181 312.0106 1605475 142.7260 229.5930  1.85520136 62372
GSAT0203 (PRN E26)      
1 40544U 15017A   23286.96389015 -.00000087  00000+0  00000+0 0  9997
2 40544  56.9076   8.1952 0006633 250.8890 109.0836  1.70476294 53204
GSAT0204 (PRN E22)      
1 40545U 15017B   23287.21764750 -.00000086  00000+0  00000+0 0  9999
2 40545  56.9142   8.2025 0004472 226.1995 133.8088  1.70475757 15599
GSAT0205 (PRN E24)      
1 40889U 15045A   23288.15878469  .00000003  00000+0  00000+0 0  9996
2 40889  55.3430 248.5691 0004283   6.9672 352.9993  1.70473065 50371
GSAT0206 (PRN E30)      
1 40890U 15045B   23286.03310890 -.00000003  00000+0  00000+0 0  9993
2 40890  55.3433 248.6231 0002761 342.6718  17.2782  1.70473109 50362
GSAT0209 (PRN E09)      
1 41174U 15079A   23287.96448627  .00000079  00000+0  00000+0 0  9991
2 41174  55.3166 128.0824 0002063 345.6550  14.4361  1.70474279 48135
GSAT0208 (PRN E08)      
1 41175U 15079B   23287.59754167  .00000078  00000+0  00000+0 0  9999
2 41175  55.3149 128.0905 0001656 358.5112   1.5866  1.70474147 48547
GSAT0211 (PRN E02)      
1 41549U 16030A   23287.13197111  .00000000  00000+0  00000+0 0  9997
2 41549  55.4900 248.5775 0004051 322.6259  37.3049  1.70473158 46018
GSAT0210 (PRN E01)      
1 41550U 16030B   23288.01003362  .00000003  00000+0  00000+0 0  9994
2 41550  55.4890 248.5545 0003755 287.6433  72.2759  1.70473368 46027
GSAT0207 (PRN E07)      
1 41859U 16069A   23285.91198029  .00000070  00000+0  00000+0 0  9993
2 41859  54.9789 128.2011 0001889 314.1743  45.9121  1.70474249 42720
GSAT0212 (PRN E03)      
1 41860U 16069B   23287.52633336  .00000077  00000+0  00000+0 0  9996
2 41860  54.9775 128.1533 0001901  25.4424 334.6657  1.70474469 43006
GSAT0213 (PRN E04)      
1 41861U 16069C   23287.89270917  .00000078  00000+0  00000+0 0  9990
2 41861  54.9797 128.1492 0001817 261.4935  98.5832  1.70473109 42875
GSAT0214 (PRN E05)      
1 41862U 16069D   23288.03998295  .00000078  00000+0  00000+0 0  9994
2 41862  54.9778 128.1390 0000876 261.7314  98.3552  1.70472970 43008
GSAT0215 (PRN E21)      
1 43055U 17079A   23287.94176696  .00000003  00000+0  00000+0 0  9992
2 43055  55.4662 248.3805 0003209 282.5796  77.3446  1.70473876 36340
GSAT0216 (PRN E25)      
1 43056U 17079B   23288.23365754  .00000004  00000+0  00000+0 0  9992
2 43056  55.4663 248.3723 0004790 284.9952  74.9126  1.70473936 36364
GSAT0217 (PRN E27)      
1 43057U 17079C   23286.69427101 -.00000001  00000+0  00000+0 0  9994
2 43057  55.4650 248.4137 0004323 298.5702  61.3451  1.70473985 36328
GSAT0218 (PRN E31)      
1 43058U 17079D   23286.32773562 -.00000002  00000+0  00000+0 0  9991
2 43058  55.4654 248.4212 0005254 280.0333  79.8665  1.70473964 36347
GSAT0221 (PRN E15)      
1 43564U 18060A   23287.98733617 -.00000083  00000+0  00000+0 0  9993
2 43564  57.2886   8.1058 0003809 253.9588 106.0476  1.70476357 32528
GSAT0222 (PRN E33)      
1 43565U 18060B   23287.03230317 -.00000086  00000+0  00000+0 0  9992
2 43565  57.2922   8.1324 0004390 227.6783 132.3295  1.70476029 32557
GSAT0219 (PRN E36)      
1 43566U 18060C   23287.84116768 -.00000083  00000+0  00000+0 0  9992
2 43566  57.2915   8.1127 0003255 261.0772  98.9338  1.70476258 32548
GSAT0220 (PRN E13)      
1 43567U 18060D   23286.88843447 -.00000086  00000+0  00000+0 0  9990
2 43567  57.2910   8.1392 0003476 256.8221 103.1836  1.70476286 32514
GSAT0223 (PRN E34)      
1 49809U 21116A   23288.49755931 -.00000081  00000+0  00000+0 0  9995
2 49809  57.2826   7.9915 0003630 202.5759 155.2898  1.70476396 11547
GSAT0224 (PRN E10)      
1 49810U 21116B   23288.29113056 -.00000082  00000+0  00000+0 0  9992
2 49810  57.2833   7.9953 0002906 197.0375 146.6241  1.70476434 11567
